NORAD_CAT_ID,OBJECT_NAME,OBJECT_TYPE,EPOCH,MEAN_MOTION,ECCENTRICITY,INCLINATION,RA_OF_ASC_NODE,ARG_OF_PERICENTER,MEAN_ANOMALY,BSTAR,MEAN_MOTION_DOT,MEAN_MOTION_DDOT,TLE_LINE0,TLE_LINE1,TLE_LINE2,SEMIMAJOR_AXIS,PERIOD,APOGEE,PERIGEE,DECAYED
52313.0,STARLINK-3749,PAYLOAD,2023-06-05 17:59:28,15.08846249,7.07e-05,53.2176,293.9382,84.4577,275.6496,8.7904e-05,1.112e-05,0.0,0 STARLINK-3749,1 52313U 22041BE  23156.74963146  .00001112  00000-0  87904-4 0  9997,2 52313  53.2176 293.9382 0000707  84.4577 275.6496 15.08846249 63707,6917.861,95.437,540.215,539.237,0.0
52313.0,STARLINK-3749,PAYLOAD,2023-06-06 01:56:24,15.08840945,6.42e-05,53.2174,292.4521,78.0321,282.0743,2.7797e-05,1.55e-06,0.0,0 STARLINK-3749,1 52313U 22041BE  23157.08083639  .00000155  00000-0  27797-4 0  9995,2 52313  53.2174 292.4521 0000642  78.0321 282.0743 15.08840945 63757,6917.878,95.437,540.187,539.298,0.0
52313.0,STARLINK-3749,PAYLOAD,2023-06-06 11:28:43,15.08834283,6.78e-05,53.2176,290.6681,76.2729,283.8339,-2.8631e-05,-7.43e-06,0.0,0 STARLINK-3749,1 52313U 22041BE  23157.47828395 -.00000743  00000-0 -28631-4 0  9997,2 52313  53.2176 290.6681 0000678  76.2729 283.8339 15.08834283 63812,6917.898,95.438,540.232,539.294,0.0
52313.0,STARLINK-3749,PAYLOAD,2023-06-06 17:50:15,15.08844478,7.3e-05,53.2175,289.4786,78.9126,281.1948,5.524e-05,5.92e-06,0.0,0 STARLINK-3749,1 52313U 22041BE  23157.74323515  .00000592  00000-0  55240-4 0  9997,2 52313  53.2175 289.4786 0000730  78.9126 281.1948 15.08844478 63850,6917.867,95.437,540.237,539.227,0.0
52313.0,STARLINK-3749,PAYLOAD,2023-06-07 03:22:34,15.08840616,9.71e-05,53.2166,287.6948,67.4642,292.6453,-2.5189e-05,-6.89e-06,0.0,0 STARLINK-3749,1 52313U 22041BE  23158.14068036 -.00000689  00000-0 -25189-4 0  9994,2 52313  53.2166 287.6948 0000971  67.4642 292.6453 15.08840616 63918,6917.879,95.438,540.415,539.072,0.0
52313.0,STARLINK-3749,PAYLOAD,2023-06-07 11:19:30,15.08832503,9.07e-05,53.2168,286.2083,74.0627,286.0465,3.8297e-05,3.22e-06,0.0,0 STARLINK-3749,1 52313U 22041BE  23158.47188488  .00000322  00000-0  38297-4 0  9990,2 52313  53.2168 286.2083 0000907  74.0627 286.0465 15.08832503 63962,6917.903,95.438,540.396,539.141,0.0
52313.0,STARLINK-3749,PAYLOAD,2023-06-07 19:16:25,15.08846582,7.13e-05,53.2175,284.7203,82.4676,277.6397,8.9408e-05,1.136e-05,0.0,0 STARLINK-3749,1 52313U 22041BE  23158.80307407  .00001136  00000-0  89408-4 0  9995,2 52313  53.2175 284.7203 0000713  82.4676 277.6397 15.08846582 64018,6917.86,95.437,540.219,539.232,0.0
52313.0,STARLINK-3749,PAYLOAD,2023-06-08 12:45:40,15.08835192,4.51e-05,53.2179,281.45,80.6523,279.452,7.8171e-05,9.57e-06,0.0,0 STARLINK-3749,1 52313U 22041BE  23159.53172159  .00000957  00000-0  78171-4 0  9995,2 52313  53.2179 281.4500 0000451  80.6523 279.4520 15.08835192 64121,6917.895,95.438,540.072,539.448,0.0
52313.0,STARLINK-3749,PAYLOAD,2023-06-08 20:42:35,15.08851877,7.61e-05,53.2175,279.9628,81.8231,278.2847,0.00011561,1.553e-05,0.0,0 STARLINK-3749,1 52313U 22041BE  23159.86291017  .00001553  00000-0  11561-3 0  9998,2 52313  53.2175 279.9628 0000761  81.8231 278.2847 15.08851877 64175,6917.844,95.437,540.236,539.183,0.0
52313.0,STARLINK-3749,PAYLOAD,2023-06-09 14:11:50,15.0883647,5.77e-05,53.2197,276.6891,193.5271,166.5706,-7.8827e-06,-4.13e-06,0.0,0 STARLINK-3749,1 52313U 22041BE  23160.59156116 -.00000413  00000-0 -78827-5 0  9996,2 52313  53.2197 276.6891 0000577 193.5271 166.5706 15.08836470 64282,6917.891,95.438,540.155,539.357,0.0
52313.0,STARLINK-3749,PAYLOAD,2023-06-10 01:19:32,15.08842679,5.14e-05,53.2175,274.6123,78.1615,281.9435,7.2587e-05,8.68e-06,0.0,0 STARLINK-3749,1 52313U 22041BE  23161.05523625  .00000868  00000-0  72587-4 0  9999,2 52313  53.2175 274.6123 0000514  78.1615 281.9435 15.08842679 64352,6917.872,95.437,540.093,539.382,0.0
52313.0,STARLINK-3749,PAYLOAD,2023-06-10 14:02:37,15.08840321,7.79e-05,53.2155,272.232,92.9116,267.1965,6.8237e-05,7.99e-06,0.0,0 STARLINK-3749,1 52313U 22041BE  23161.58515857  .00000799  00000-0  68237-4 0  9995,2 52313  53.2155 272.2320 0000779  92.9116 267.1965 15.08840321 64431,6917.879,95.438,540.283,539.206,0.0
52313.0,STARLINK-3749,PAYLOAD,2023-06-11 09:07:15,15.08837092,7.31e-05,53.2175,268.6643,87.0579,273.0497,2.2153e-05,6.5e-07,0.0,0 STARLINK-3749,1 52313U 22041BE  23162.38004349  .00000065  00000-0  22153-4 0  9996,2 52313  53.2175 268.6643 0000731  87.0579 273.0497 15.08837092 64556,6917.889,95.438,540.26,539.249,0.0
52313.0,STARLINK-3749,PAYLOAD,2023-06-11 13:53:24,15.08840637,7.89e-05,53.217,267.7731,94.6751,265.4331,4.9962e-05,5.08e-06,0.0,0 STARLINK-3749,1 52313U 22041BE  23162.57876043  .00000508  00000-0  49962-4 0  9994,2 52313  53.2170 267.7731 0000789  94.6751 265.4331 15.08840637 64582,6917.878,95.438,540.289,539.198,0.0
52313.0,STARLINK-3749,PAYLOAD,2023-06-11 23:25:43,15.08842557,7.84e-05,53.2175,265.9873,91.8619,268.2463,6.7616e-05,7.89e-06,0.0,0 STARLINK-3749,1 52313U 22041BE  23162.97619834  .00000789  00000-0  67616-4 0  9998,2 52313  53.2175 265.9873 0000784  91.8619 268.2463 15.08842557 64648,6917.873,95.437,540.28,539.195,0.0
52313.0,STARLINK-3749,PAYLOAD,2023-06-12 05:47:16,15.08836051,7.34e-05,53.2169,264.8002,99.5083,260.5992,6.1651e-05,6.94e-06,0.0,0 STARLINK-3749,1 52313U 22041BE  23163.24116270  .00000694  00000-0  61651-4 0  9993,2 52313  53.2169 264.8002 0000734  99.5083 260.5992 15.08836051 64686,6917.892,95.438,540.265,539.25,0.0
52313.0,STARLINK-3749,PAYLOAD,2023-06-12 13:44:12,15.08836253,7.37e-05,53.2168,263.3133,98.658,261.4496,5.6557e-05,6.12e-06,0.0,0 STARLINK-3749,1 52313U 22041BE  23163.57236347  .00000612  00000-0  56557-4 0  9996,2 52313  53.2168 263.3133 0000737  98.6580 261.4496 15.08836253 64738,6917.892,95.438,540.267,539.247,0.0
52313.0,STARLINK-3749,PAYLOAD,2023-06-13 04:02:40,15.08831675,7.89e-05,53.2176,260.6379,98.1634,261.9448,1.8442e-05,6e-08,0.0,0 STARLINK-3749,1 52313U 22041BE  23164.16852894  .00000006  00000-0  18442-4 0  9991,2 52313  53.2176 260.6379 0000789  98.1634 261.9448 15.08831675 64826,6917.906,95.438,540.317,539.225,0.0
52313.0,STARLINK-3749,PAYLOAD,2023-06-13 23:07:18,15.08839239,8.68e-05,53.2175,257.0701,103.3413,256.7676,2.7976e-05,1.58e-06,0.0,0 STARLINK-3749,1 52313U 22041BE  23164.96340567  .00000158  00000-0  27976-4 0  9998,2 52313  53.2175 257.0701 0000868 103.3413 256.7676 15.08839239 64948,6917.883,95.438,540.348,539.147,0.0
52313.0,STARLINK-3749,PAYLOAD,2023-06-14 15:01:09,15.08839442,0.0001026,53.2178,254.0964,101.4337,258.6771,3.588e-05,2.83e-06,0.0,0 STARLINK-3749,1 52313U 22041BE  23165.62580645  .00000283  00000-0  35880-4 0  9997,2 52313  53.2178 254.0964 0001026 101.4337 258.6771 15.08839442 65045,6917.882,95.438,540.457,539.037,0.0
52313.0,STARLINK-3749,PAYLOAD,2023-06-15 10:05:45,15.08897944,0.0001072,53.2172,250.5254,60.9425,299.1674,-0.00083754,-0.00013614,0.0,0 STARLINK-3749,1 52313U 22041BE  23166.42067046 -.00013614  00000-0 -83754-3 0  9997,2 52313  53.2172 250.5254 0001072  60.9425 299.1674 15.08897944 65166,6917.703,95.434,540.31,538.827,0.0
52313.0,STARLINK-3749,PAYLOAD,2023-06-15 13:16:33,15.08838459,8.38e-05,53.217,249.931,80.6721,279.4366,7.4531e-05,8.99e-06,0.0,0 STARLINK-3749,1 52313U 22041BE  23166.55316869  .00000899  00000-0  74531-4 0  9994,2 52313  53.2170 249.9310 0000838  80.6721 279.4366 15.08838459 65183,6917.885,95.438,540.33,539.17,0.0
52313.0,STARLINK-3749,PAYLOAD,2023-06-16 11:31:56,15.08850372,7.53e-05,53.2155,245.7682,79.5978,280.5099,0.00012892,1.765e-05,0.0,0 STARLINK-3749,1 52313U 22041BE  23167.48051741  .00001765  00000-0  12892-3 0  9996,2 52313  53.2155 245.7682 0000753  79.5978 280.5099 15.08850372 65329,6917.849,95.437,540.235,539.193,0.0
52313.0,STARLINK-3749,PAYLOAD,2023-06-16 13:07:19,15.08852407,8.13e-05,53.2162,245.4706,75.5883,284.52,0.00019611,2.836e-05,0.0,0 STARLINK-3749,1 52313U 22041BE  23167.54675410  .00002836  00000-0  19611-3 0  9994,2 52313  53.2162 245.4706 0000813  75.5883 284.5200 15.08852407 65339,6917.842,95.437,540.27,539.145,0.0
52313.0,STARLINK-3749,PAYLOAD,2023-06-16 22:39:39,15.08842309,0.000113,53.2188,243.6817,97.3778,262.7342,7.5748e-05,9.18e-06,0.0,0 STARLINK-3749,1 52313U 22041BE  23167.94420277  .00000918  00000-0  75748-4 0  9990,2 52313  53.2188 243.6817 0001130  97.3778 262.7342 15.08842309 65399,6917.873,95.437,540.52,538.957,0.0
52313.0,STARLINK-3749,PAYLOAD,2023-06-17 11:22:44,15.08834685,0.0001263,53.2166,241.3075,89.7909,270.3228,2.6779e-05,1.38e-06,0.0,0 STARLINK-3749,1 52313U 22041BE  23168.47413128  .00000138  00000-0  26779-4 0  9990,2 52313  53.2166 241.3075 0001263  89.7909 270.3228 15.08834685 65479,6917.897,95.438,540.635,538.888,0.0
52313.0,STARLINK-3749,PAYLOAD,2023-06-17 12:58:08,15.08830889,9.13e-05,53.216,241.0096,99.9615,260.148,-5.6779e-05,-1.191e-05,0.0,0 STARLINK-3749,1 52313U 22041BE  23168.54037560 -.00001191  00000-0 -56779-4 0  9995,2 52313  53.2160 241.0096 0000913  99.9615 260.1480 15.08830889 65481,6917.908,95.438,540.405,539.142,0.0
52313.0,STARLINK-3749,PAYLOAD,2023-06-18 04:51:59,15.08840058,6.6e-05,53.2166,238.0361,96.8168,263.2899,7.3987e-08,-2.86e-06,0.0,0 STARLINK-3749,1 52313U 22041BE  23169.20276871 -.00000286  00000-0  73987-7 0  9995,2 52313  53.2166 238.0361 0000660  96.8168 263.2899 15.08840058 65584,6917.88,95.438,540.202,539.289,0.0
52313.0,STARLINK-3749,PAYLOAD,2023-06-18 11:13:31,15.08842811,5.9e-05,53.2161,236.8472,89.5958,270.5102,3.5462e-05,2.77e-06,0.0,0 STARLINK-3749,1 52313U 22041BE  23169.46772603  .00000277  00000-0  35462-4 0  9999,2 52313  53.2161 236.8472 0000590  89.5958 270.5102 15.08842811 65628,6917.872,95.437,540.145,539.329,0.0
52313.0,STARLINK-3749,PAYLOAD,2023-06-19 11:04:18,15.08835348,8.13e-05,53.2167,232.3865,101.846,258.2623,0.00016651,2.363e-05,0.0,0 STARLINK-3749,1 52313U 22041BE  23170.46133004  .00002363  00000-0  16651-3 0  9993,2 52313  53.2167 232.3865 0000813 101.8460 258.2623 15.08835348 65779,6917.895,95.438,540.322,539.197,0.0
